COMMENT,ORIGINATOR,NORAD_CAT_ID,OBJECT_NAME,OBJECT_TYPE,CLASSIFICATION_TYPE,INTLDES,EPOCH,EPOCH_MICROSECONDS,MEAN_MOTION,ECCENTRICITY,INCLINATION,RA_OF_ASC_NODE,ARG_OF_PERICENTER,MEAN_ANOMALY,EPHEMERIS_TYPE,ELEMENT_SET_NO,REV_AT_EPOCH,BSTAR,MEAN_MOTION_DOT,MEAN_MOTION_DDOT,FILE,TLE_LINE0,TLE_LINE1,TLE_LINE2,OBJECT_ID,OBJECT_NUMBER,SEMIMAJOR_AXIS,PERIOD,APOGEE,PERIGEE,DECAYED
GENERATED VIA SPACETRACK.ORG API,18 SPCS,44066,S5 DEB,DEBRIS,U,19009E,2024-03-15 23:12:51,741792,0.98983819,0.0004596,4.467,80.6169,202.3576,157.8483,0,999,1821,0,-0.00000072,0,4228482,0 S5 DEB,1 44066U 19009E   24075.96726553 -.00000072  00000-0  00000-0 0  9990,2 44066   4.4670  80.6169 0004596 202.3576 157.8483  0.98983819 18215,2019-009E,44066,42529.705,1454.783,36171.117,36132.023,0
GENERATED VIA SPACETRACK.ORG API,18 SPCS,25001,TITAN 3C TRANSTAGE DEB,DEBRIS,U,68081H,2024-03-15 21:56:44,198016,1.01691606,0.0069701,1.0255,348.1805,39.2615,261.8534,0,999,10994,0,-0.0000002,0,4227250,0 TITAN 3C TRANSTAGE DEB,1 25001U 68081H   24075.91440044 -.00000020  00000-0  00000-0 0  9998,2 25001   1.0255 348.1805 0069701  39.2615 261.8534  1.01691606109943,1968-081H,25001,41771.343,1416.046,35684.358,35102.057,0
GENERATED VIA SPACETRACK.ORG API,18 SPCS,42749,ECHOSTAR 21,PAYLOAD,U,17032A,2024-03-15 21:52:42,626208,1.00270813,0.0002454,2.7005,317.8945,23.8423,170.6504,0,999,2485,0,0.00000054,0,4227250,0 ECHOSTAR 21,1 42749U 17032A   24075.91160447  .00000054  00000-0  00000-0 0  9998,2 42749   2.7005 317.8945 0002454  23.8423 170.6504  1.00270813 24850,2017-032A,42749,42165.004,1436.111,35797.217,35776.522,0
GENERATED VIA SPACETRACK.ORG API,18 SPCS,41469,IRNSS 1G,PAYLOAD,U,16027A,2024-03-15 21:52:13,523232,1.00270972,0.000528,3.232,122.6606,297.58,211.3329,0,999,2892,0,-0.00000346,0,4227250,0 IRNSS 1G,1 41469U 16027A   24075.91126763 -.00000346  00000-0  00000-0 0  9997,2 41469   3.2320 122.6606 0005280 297.5800 211.3329  1.00270972 28925,2016-027A,41469,42164.960,1436.109,35809.088,35764.562,0
GENERATED VIA SPACETRACK.ORG API,18 SPCS,42915,TDRS 13,PAYLOAD,U,17047A,2024-03-15 21:11:48,390144,1.0027192,0.001412,3.7188,342.7076,105.878,31.7891,0,999,2409,0,-0.0000011,0,4227250,0 TDRS 13,1 42915U 17047A   24075.88319896 -.00000110  00000-0  00000-0 0  9993,2 42915   3.7188 342.7076 0014120 105.8780  31.7891  1.00271920 24092,2017-047A,42915,42164.694,1436.095,35846.096,35727.023,0
GENERATED VIA SPACETRACK.ORG API,18 SPCS,41384,IRNSS 1F,PAYLOAD,U,16015A,2024-03-15 20:54:42,740928,1.00271211,0.0019537,3.3514,121.3841,190.8004,207.8779,0,999,2940,0,0.00000148,0,4226933,0 IRNSS 1F,1 41384U 16015A   24075.87132802  .00000148  00000-0  00000+0 0  9994,2 41384   3.3514 121.3841 0019537 190.8004 207.8779  1.00271211 29405,2016-015A,41384,42164.893,1436.105,35869.135,35704.380,0
GENERATED VIA SPACETRACK.ORG API,18 SPCS,41384,IRNSS 1F,PAYLOAD,U,16015A,2024-03-15 20:54:42,740928,1.00271211,0.0019537,3.3514,121.3841,190.8004,207.8779,0,999,2941,0,0.00000148,0,4227250,0 IRNSS 1F,1 41384U 16015A   24075.87132802  .00000148  00000-0  00000-0 0  9995,2 41384   3.3514 121.3841 0019537 190.8004 207.8779  1.00271211 29416,2016-015A,41384,42164.893,1436.105,35869.135,35704.380,0
GENERATED VIA SPACETRACK.ORG API,18 SPCS,22787,UFO 2 (USA 95),PAYLOAD,U,93056A,2024-03-15 20:54:42,740928,1.00274932,0.0004438,11.6307,7.8427,7.0178,141.4165,0,999,11040,0,0.00000117,0,4226882,0 UFO 2 (USA 95),1 22787U 93056A   24075.87132802  .00000117  00000-0  00000+0 0  9996,2 22787  11.6307   7.8427 0004438   7.0178 141.4165  1.00274932110402,1993-056A,22787,42163.850,1436.052,35804.427,35767.002,0
GENERATED VIA SPACETRACK.ORG API,18 SPCS,22787,UFO 2 (USA 95),PAYLOAD,U,93056A,2024-03-15 20:54:42,740928,1.00274932,0.0004438,11.6307,7.8427,7.0178,141.4165,0,999,11029,0,0.00000116,0,4227250,0 UFO 2 (USA 95),1 22787U 93056A   24075.87132802  .00000116  00000-0  00000-0 0  9996,2 22787  11.6307   7.8427 0004438   7.0178 141.4165  1.00274932110299,1993-056A,22787,42163.850,1436.052,35804.427,35767.002,0
GENERATED VIA SPACETRACK.ORG API,18 SPCS,33373,NIMIQ 4,PAYLOAD,U,08044A,2024-03-15 20:51:37,870848,1.00276064,0.0001706,0.0216,239.4028,114.1378,51.2871,0,999,5672,0,-0.00000231,0,4227250,0 NIMIQ 4,1 33373U 08044A   24075.86918832 -.00000231  00000-0  00000-0 0  9995,2 33373   0.0216 239.4028 0001706 114.1378  51.2871  1.00276064 56727,2008-044A,33373,42163.532,1436.036,35792.591,35778.204,0
GENERATED VIA SPACETRACK.ORG API,18 SPCS,41937,SBIRS GEO 4 (USA 273),PAYLOAD,U,17004A,2024-03-15 20:47:22,233984,1.00271523,0.0002421,1.4493,350.821,353.5968,44.5372,0,999,2635,0,-0.00000154,0,4227250,0 SBIRS GEO 4 (USA 273),1 41937U 17004A   24075.86622956 -.00000154  00000-0  00000-0 0  9999,2 41937   1.4493 350.8210 0002421 353.5968  44.5372  1.00271523 26356,2017-004A,41937,42164.805,1436.101,35796.879,35776.462,0
GENERATED VIA SPACETRACK.ORG API,18 SPCS,33436,ASTRA 1M,PAYLOAD,U,08057A,2024-03-15 20:36:42,601824,1.00268903,0.000144,0.0193,141.7575,255.2581,105.3029,0,999,3748,0,0.00000108,0,4227250,0 ASTRA 1M,1 33436U 08057A   24075.85882641  .00000108  00000-0  00000-0 0  9998,2 33436   0.0193 141.7575 0001440 255.2581 105.3029  1.00268903 37482,2008-057A,33436,42165.540,1436.138,35793.477,35781.333,0
GENERATED VIA SPACETRACK.ORG API,18 SPCS,29055,ASTRA 1KR,PAYLOAD,U,06012A,2024-03-15 20:36:42,601824,1.00274311,0.0002759,0.0502,284.1356,15.6091,202.5427,0,999,3746,0,0.00000109,0,4227250,0 ASTRA 1KR,1 29055U 06012A   24075.85882641  .00000109  00000-0  00000-0 0  9990,2 29055   0.0502 284.1356 0002759  15.6091 202.5427  1.00274311 37465,2006-012A,29055,42164.024,1436.061,35797.522,35774.256,0
GENERATED VIA SPACETRACK.ORG API,18 SPCS,43162,SBIRS GEO 3 (USA 282),PAYLOAD,U,18009A,2024-03-15 18:46:19,826688,1.00272136,0.0001891,2.4744,332.2774,15.5837,308.1492,0,999,2258,0,0.00000118,0,4226860,0 SBIRS GEO 3 (USA 282),1 43162U 18009A   24075.78217392  .00000118  00000-0  00000+0 0  9990,2 43162   2.4744 332.2774 0001891  15.5837 308.1492  1.00272136 22581,2018-009A,43162,42164.634,1436.092,35794.472,35778.525,0
GENERATED VIA SPACETRACK.ORG API,18 SPCS,43162,SBIRS GEO 3 (USA 282),PAYLOAD,U,18009A,2024-03-15 18:46:19,826688,1.00272136,0.0001891,2.4744,332.2774,15.5837,308.1492,0,999,2258,0,0.00000118,0,4227250,0 SBIRS GEO 3 (USA 282),1 43162U 18009A   24075.78217392  .00000118  00000-0  00000-0 0  9991,2 43162   2.4744 332.2774 0001891  15.5837 308.1492  1.00272136 22581,2018-009A,43162,42164.634,1436.092,35794.472,35778.525,0
GENERATED VIA SPACETRACK.ORG API,18 SPCS,43453,TITAN 3C TRANSTAGE DEB,DEBRIS,U,69013L,2024-03-15 18:39:35,976672,1.07400997,0.0724878,1.7238,232.1882,213.0388,141.5971,0,999,2319,0,-0.00000124,0,4227250,0 TITAN 3C TRANSTAGE DEB,1 43453U 69013L   24075.77749973 -.00000124  00000-0  00000-0 0  9997,2 43453   1.7238 232.1882 0724878 213.0388 141.5971  1.07400997 23199,1969-013L,43453,40277.543,1340.770,36819.038,30979.777,0
GENERATED VIA SPACETRACK.ORG API,18 SPCS,43453,TITAN 3C TRANSTAGE DEB,DEBRIS,U,69013L,2024-03-15 18:39:35,726976,1.07400604,0.0727864,1.7241,232.1628,213.004,141.6159,0,999,2319,0,-0.00000124,0,4228067,0 TITAN 3C TRANSTAGE DEB,1 43453U 69013L   24075.77749684 -.00000124  00000-0  00000+0 0  9995,2 43453   1.7241 232.1628 0727864 213.0040 141.6159  1.07400604 23198,1969-013L,43453,40277.641,1340.775,36831.170,30967.841,0
GENERATED VIA SPACETRACK.ORG API,18 SPCS,43453,TITAN 3C TRANSTAGE DEB,DEBRIS,U,69013L,2024-03-15 18:39:33,612768,1.0740064,0.0727997,1.724,232.1635,213.0163,141.6012,0,999,2319,0,-0.00000124,0,4228482,0 TITAN 3C TRANSTAGE DEB,1 43453U 69013L   24075.77747237 -.00000124  00000-0  00000-0 0  9998,2 43453   1.7240 232.1635 0727997 213.0163 141.6012  1.07400640 23196,1969-013L,43453,40277.632,1340.774,36831.696,30967.297,0
GENERATED VIA SPACETRACK.ORG API,18 SPCS,43453,TITAN 3C TRANSTAGE DEB,DEBRIS,U,69013L,2024-03-15 18:39:29,878560,1.07400687,0.0728488,1.7237,232.1529,213.0338,141.5782,0,999,2320,0,-0.00000124,0,4229019,0 TITAN 3C TRANSTAGE DEB,1 43453U 69013L   24075.77742915 -.00000124  00000-0  00000-0 0  9996,2 43453   1.7237 232.1529 0728488 213.0338 141.5782  1.07400687 23200,1969-013L,43453,40277.620,1340.774,36833.661,30965.309,0
GENERATED VIA SPACETRACK.ORG API,18 SPCS,44479,AMOS 17,PAYLOAD,U,19050A,2024-03-15 17:53:41,951616,1.0027427,0.0001823,0.0122,124.2192,247.9596,87.0557,0,999,1692,0,0.00000099,0,4227180,0 AMOS 17,1 44479U 19050A   24075.74562444  .00000099  00000-0  00000+0 0  9994,2 44479   0.0122 124.2192 0001823 247.9596  87.0557  1.00274270 16925,2019-050A,44479,42164.035,1436.061,35793.587,35778.214,0
GENERATED VIA SPACETRACK.ORG API,18 SPCS,44479,AMOS 17,PAYLOAD,U,19050A,2024-03-15 17:53:41,951616,1.0027427,0.0001823,0.0122,124.2192,247.9596,87.0557,0,999,1693,0,0.00000098,0,4227250,0 AMOS 17,1 44479U 19050A   24075.74562444  .00000098  00000-0  00000-0 0  9994,2 44479   0.0122 124.2192 0001823 247.9596  87.0557  1.00274270 16936,2019-050A,44479,42164.035,1436.061,35793.587,35778.214,0
GENERATED VIA SPACETRACK.ORG API,18 SPCS,20253,FLTSATCOM 8 (USA 46),PAYLOAD,U,89077A,2024-03-15 16:41:46,187808,1.002687,0.0006828,12.6636,356.128,357.2436,196.6792,0,999,25234,0,-0.00000375,0,4226989,0 FLTSATCOM 8 (USA 46),1 20253U 89077A   24075.69567347 -.00000375  00000-0  00000+0 0  9993,2 20253  12.6636 356.1280 0006828 357.2436 196.6792  1.00268700252347,1989-077A,20253,42165.597,1436.141,35816.252,35758.671,0
GENERATED VIA SPACETRACK.ORG API,18 SPCS,20253,FLTSATCOM 8 (USA 46),PAYLOAD,U,89077A,2024-03-15 16:41:46,187808,1.002687,0.0006828,12.6636,356.128,357.2436,196.6792,0,999,25236,0,-0.00000375,0,4227250,0 FLTSATCOM 8 (USA 46),1 20253U 89077A   24075.69567347 -.00000375  00000-0  00000-0 0  9994,2 20253  12.6636 356.1280 0006828 357.2436 196.6792  1.00268700252369,1989-077A,20253,42165.597,1436.141,35816.252,35758.671,0
